NORAD_CAT_ID,OBJECT_NAME,OBJECT_TYPE,EPOCH,MEAN_MOTION,ECCENTRICITY,INCLINATION,RA_OF_ASC_NODE,ARG_OF_PERICENTER,MEAN_ANOMALY,BSTAR,MEAN_MOTION_DOT,MEAN_MOTION_DDOT,TLE_LINE0,TLE_LINE1,TLE_LINE2,SEMIMAJOR_AXIS,PERIOD,APOGEE,PERIGEE,DECAYED
56767.0,STARLINK-6197,PAYLOAD,2023-06-13 14:00:01,15.77319944,0.0003464,70.0038,15.9603,266.7252,183.8745,-0.0063702,-0.00943045,0.0,0 STARLINK-6197,1 56767U 23078A   23164.58334491 -.00943045  00000-0 -63702-2 0  9991,2 56767  70.0038  15.9603 0003464 266.7252 183.8745 15.77319944  1302,6716.175,91.294,340.366,335.713,0.0
56767.0,STARLINK-6197,PAYLOAD,2023-06-13 18:00:00,15.76966357,0.0003561,70.0036,15.4867,267.1136,49.4872,-0.0062971,-0.0092019,0.0,0 STARLINK-6197,1 56767U 23078A   23164.75001157 -.00920190  00000-0 -62971-2 0  9993,2 56767  70.0036  15.4867 0003561 267.1136  49.4872 15.76966357  2428,6717.178,91.315,341.435,336.652,0.0
56767.0,STARLINK-6197,PAYLOAD,2023-06-13 22:00:00,15.7661121,0.0003298,70.0033,15.0135,271.8148,270.577,-0.0059391,-0.00860265,0.0,0 STARLINK-6197,1 56767U 23078A   23164.91667824 -.00860265  00000-0 -59391-2 0  9998,2 56767  70.0033  15.0135 0003298 271.8148 270.5770 15.76611210  1306,6718.187,91.335,342.268,337.837,0.0
56767.0,STARLINK-6197,PAYLOAD,2023-06-14 14:00:01,15.75362238,0.0003516,70.0035,13.1224,265.9946,97.572,-0.0069217,-0.0093991,0.0,0 STARLINK-6197,1 56767U 23078A   23165.58334491 -.00939910  00000-0 -69217-2 0  9995,2 56767  70.0035  13.1224 0003516 265.9946  97.5720 15.75362238  1303,6721.738,91.408,345.966,341.239,0.0
56767.0,STARLINK-6197,PAYLOAD,2023-06-14 20:00:01,15.74820691,0.0003498,70.0035,12.414,269.7723,70.9605,-0.0065427,-0.00874479,0.0,0 STARLINK-6197,1 56767U 23078A   23165.83334491 -.00874479  00000-0 -65427-2 0  9990,2 56767  70.0035  12.4140 0003498 269.7723  70.9605 15.74820691  2596,6723.278,91.439,347.495,342.792,0.0
56767.0,STARLINK-6197,PAYLOAD,2023-06-14 22:00:00,15.7466208,0.0003403,70.0035,12.178,273.1818,179.8281,-0.0065622,-0.00871323,0.0,0 STARLINK-6197,1 56767U 23078A   23165.91667824 -.00871323  00000-0 -65622-2 0  9990,2 56767  70.0035  12.1780 0003403 273.1818 179.8281 15.74662080  1306,6723.73,91.448,347.883,343.307,0.0
56767.0,STARLINK-6197,PAYLOAD,2023-06-15 12:00:02,15.73528627,0.0003436,70.0031,10.5281,266.5238,251.157,-0.0069531,-0.00878236,0.0,0 STARLINK-6197,1 56767U 23078A   23166.50002315 -.00878236  00000-0 -69531-2 0  9997,2 56767  70.0031  10.5281 0003436 266.5238 251.1570 15.73528627  2693,6726.958,91.514,351.135,346.512,0.0
56767.0,STARLINK-6197,PAYLOAD,2023-06-15 14:00:01,15.73403451,0.0003572,70.0032,10.2926,265.5148,3.979,-0.0075013,-0.00935884,0.0,0 STARLINK-6197,1 56767U 23078A   23166.58334491 -.00935884  00000-0 -75013-2 0  9993,2 56767  70.0032  10.2926 0003572 265.5148   3.9790 15.73403451  1308,6727.315,91.521,351.583,346.777,0.0
56767.0,STARLINK-6197,PAYLOAD,2023-06-15 20:00:01,15.7286709,0.0003589,70.0027,9.5865,271.458,333.4399,-0.007169,-0.00879993,0.0,0 STARLINK-6197,1 56767U 23078A   23166.83334491 -.00879993  00000-0 -71690-2 0  9996,2 56767  70.0027   9.5865 0003589 271.4580 333.4399 15.72867090  1307,6728.844,91.553,353.124,348.295,0.0
56767.0,STARLINK-6197,PAYLOAD,2023-06-16 04:00:00,15.72252665,0.0003686,70.0023,8.6455,271.5746,59.8006,-0.0079196,-0.00940066,0.0,0 STARLINK-6197,1 56767U 23078A   23167.16667824 -.00940066  00000-0 -79196-2 0  9991,2 56767  70.0023   8.6455 0003686 271.5746  59.8006 15.72252665  2807,6730.597,91.588,354.943,349.982,0.0
56767.0,STARLINK-6197,PAYLOAD,2023-06-16 12:00:00,15.71583936,0.0003806,70.0024,7.7055,267.0351,150.0475,-0.0077272,-0.00896346,0.0,0 STARLINK-6197,1 56767U 23078A   23167.50001157 -.00896346  00000-0 -77272-2 0  9994,2 56767  70.0024   7.7055 0003806 267.0351 150.0475 15.71583936  2856,6732.507,91.627,356.934,351.809,0.0
56767.0,STARLINK-6197,PAYLOAD,2023-06-16 14:00:01,15.71440789,0.0003678,70.0027,7.4707,265.6361,262.746,-0.0080825,-0.00928203,0.0,0 STARLINK-6197,1 56767U 23078A   23167.58334491 -.00928203  00000-0 -80825-2 0  9998,2 56767  70.0027   7.4707 0003678 265.6361 262.7460 15.71440789  1304,6732.915,91.636,357.257,352.304,0.0
56767.0,STARLINK-6197,PAYLOAD,2023-06-16 22:00:00,15.70719541,0.0003687,70.0025,6.5317,270.9941,342.1413,-0.0072025,-0.00813612,0.0,0 STARLINK-6197,1 56767U 23078A   23167.91667824 -.00813612  00000-0 -72025-2 0  9994,2 56767  70.0025   6.5317 0003687 270.9941 342.1413 15.70719541  1307,6734.976,91.678,359.325,354.358,0.0
56767.0,STARLINK-6197,PAYLOAD,2023-06-17 04:00:00,15.70123466,0.0003679,70.0018,5.8282,272.1164,314.0622,-0.0028087,-0.00327836,0.0,0 STARLINK-6197,1 56767U 23078A   23168.16667824 -.00327836  00000-0 -28087-2 0  9999,2 56767  70.0018   5.8282 0003679 272.1164 314.0622 15.70123466  2951,6736.681,91.713,361.024,356.067,0.0
56767.0,STARLINK-6197,PAYLOAD,2023-06-17 09:09:24,15.70317895,0.0003617,70.0024,5.224,263.7675,96.3109,-0.0022055,-0.00261585,0.0,0 STARLINK-6197,1 56767U 23078A   23168.38152874 -.00261585  00000-0 -22055-2 0  9994,2 56767  70.0024   5.2240 0003617 263.7675  96.3109 15.70317895  2996,6736.125,91.701,360.426,355.553,0.0
56767.0,STARLINK-6197,PAYLOAD,2023-06-17 12:12:53,15.7016951,0.0003549,70.0023,4.8658,271.2674,88.8115,-0.0017032,-0.00202218,0.0,0 STARLINK-6197,1 56767U 23078A   23168.50895634 -.00202218  00000-0 -17032-2 0  9993,2 56767  70.0023   4.8658 0003549 271.2674  88.8115 15.70169510  2756,6736.549,91.71,360.805,356.023,0.0
56767.0,STARLINK-6197,PAYLOAD,2023-06-17 18:19:53,15.70025102,0.0003721,70.0022,4.149,277.4294,82.6479,-0.00055044,-0.00066161,0.0,0 STARLINK-6197,1 56767U 23078A   23168.76381181 -.00066161  00000-0 -55044-3 0  9999,2 56767  70.0022   4.1490 0003721 277.4294  82.6479 15.70025102  3057,6736.962,91.718,361.334,356.32,0.0
56767.0,STARLINK-6197,PAYLOAD,2023-06-17 21:23:23,15.69989291,0.0003781,70.0022,3.7907,273.3575,86.7188,-0.00015488,-0.00018846,0.0,0 STARLINK-6197,1 56767U 23078A   23168.89124218 -.00018846  00000-0 -15488-3 0  9994,2 56767  70.0022   3.7907 0003781 273.3575  86.7188 15.69989291  2819,6737.065,91.72,361.477,356.382,0.0
56767.0,STARLINK-6197,PAYLOAD,2023-06-18 04:00:00,15.69905698,0.0003518,70.0002,3.0167,270.284,205.9876,-6.0922e-06,-9.45e-06,0.0,0 STARLINK-6197,1 56767U 23078A   23169.16667824 -.00000945  00000-0 -60922-5 0  9996,2 56767  70.0002   3.0167 0003518 270.2840 205.9876 15.69905698  3119,6737.304,91.725,361.539,356.799,0.0
56767.0,STARLINK-6197,PAYLOAD,2023-06-18 12:40:55,15.69934008,0.0003606,70.0006,1.9994,269.5626,90.5156,0.00019017,0.00022726,0.0,0 STARLINK-6197,1 56767U 23078A   23169.52841610  .00022726  00000-0  19017-3 0  9999,2 56767  70.0006   1.9994 0003606 269.5626  90.5156 15.69934008  2912,6737.223,91.724,361.517,356.658,0.0
56767.0,STARLINK-6197,PAYLOAD,2023-06-18 20:00:01,15.69917904,0.0003557,70.0003,1.142,271.4347,11.5058,0.00017944,0.00021414,0.0,0 STARLINK-6197,1 56767U 23078A   23169.83334491  .00021414  00000-0  17944-3 0  9997,2 56767  70.0003   1.1420 0003557 271.4347  11.5058 15.69917904  3227,6737.269,91.725,361.53,356.737,0.0
56767.0,STARLINK-6197,PAYLOAD,2023-06-18 22:00:00,15.69916172,0.0003542,70.0004,0.9075,272.3239,121.4513,0.00029095,0.00034907,0.0,0 STARLINK-6197,1 56767U 23078A   23169.91667824  .00034907  00000-0  29095-3 0  9996,2 56767  70.0004   0.9075 0003542 272.3239 121.4513 15.69916172  1305,6737.274,91.725,361.525,356.752,0.0
56767.0,STARLINK-6197,PAYLOAD,2023-06-19 08:33:41,15.69953593,0.0003579,70.0006,359.6702,270.5407,89.5378,0.00056406,0.0006825,0.0,0 STARLINK-6197,1 56767U 23078A   23170.35672973  .00068250  00000-0  56406-3 0  9991,2 56767  70.0006 359.6702 0003579 270.5407  89.5378 15.69953593  3308,6737.167,91.722,361.443,356.621,0.0
56767.0,STARLINK-6197,PAYLOAD,2023-06-19 14:00:01,15.69968162,0.0003623,70.0007,359.0334,264.5068,295.9255,-0.00054043,-0.00064818,0.0,0 STARLINK-6197,1 56767U 23078A   23170.58334491 -.00064818  00000-0 -54043-3 0  9999,2 56767  70.0007 359.0334 0003623 264.5068 295.9255 15.69968162  1303,6737.125,91.722,361.431,356.549,0.0
56767.0,STARLINK-6197,PAYLOAD,2023-06-19 20:00:01,15.69887265,0.000367,70.0004,358.3305,271.3227,261.6442,0.00045239,0.00054457,0.0,0 STARLINK-6197,1 56767U 23078A   23170.83334491  .00054457  00000-0  45239-3 0  9990,2 56767  70.0004 358.3305 0003670 271.3227 261.6442 15.69887265  3376,6737.357,91.726,361.694,356.749,0.0
56767.0,STARLINK-6197,PAYLOAD,2023-06-19 22:00:00,15.69887124,0.0003663,70.0004,358.0961,272.4133,11.3823,0.00059212,0.00071488,0.0,0 STARLINK-6197,1 56767U 23078A   23170.91667824  .00071488  00000-0  59212-3 0  9997,2 56767  70.0004 358.0961 0003663 272.4133  11.3823 15.69887124  1309,6737.357,91.726,361.69,356.754,0.0
56767.0,STARLINK-6197,PAYLOAD,2023-06-20 09:01:43,15.69923053,0.0003783,70.0004,356.8034,274.0312,86.0451,0.00033591,0.00040373,0.0,0 STARLINK-6197,1 56767U 23078A   23171.37620009  .00040373  00000-0  33591-3 0  9993,2 56767  70.0004 356.8034 0003783 274.0312  86.0451 15.69923053  3463,6737.254,91.724,361.668,356.57,0.0
56767.0,STARLINK-6197,PAYLOAD,2023-06-20 12:05:13,15.6992501,0.0003848,70.0002,356.4453,270.95,89.1255,0.00031041,0.00037282,0.0,0 STARLINK-6197,1 56767U 23078A   23171.50363359  .00037282  00000-0  31041-3 0  9993,2 56767  70.0002 356.4453 0003848 270.9500  89.1255 15.69925010  3223,6737.249,91.724,361.706,356.521,0.0
56767.0,STARLINK-6197,PAYLOAD,2023-06-20 21:15:44,15.69928753,0.0003799,70.0005,355.3704,270.0552,90.0209,0.0002792,0.00033502,0.0,0 STARLINK-6197,1 56767U 23078A   23171.88593296  .00033502  00000-0  27920-3 0  9991,2 56767  70.0005 355.3704 0003799 270.0552  90.0209 15.69928753  3289,6737.238,91.724,361.662,356.543,0.0
56767.0,STARLINK-6197,PAYLOAD,2023-06-21 01:50:59,15.69937082,0.0003821,70.0006,354.833,270.197,89.8787,0.00039933,0.00048109,0.0,0 STARLINK-6197,1 56767U 23078A   23172.07708217  .00048109  00000-0  39933-3 0  9990,2 56767  70.0006 354.8330 0003821 270.1970  89.8787 15.69937082  3574,6737.214,91.723,361.653,356.505,0.0
